start=new Date('2022-08-26T00:00:00.000Z').valueOf();
sats=[{"EPHEMERIS_TYPE":"0","BSTAR":"0.00172750000000","MEAN_MOTION_DOT":"0.00027298","RCS_SIZE":"LARGE","MEAN_MOTION_DDOT":"0.0000000000000","CLASSIFICATION_TYPE":"U","MEAN_ANOMALY":"323.5011","OBJECT_ID":"2022-025E","NORAD_CAT_ID":"51960","PERIOD":"95.439","MEAN_ELEMENT_THEORY":"SGP4","OBJECT_NAME":"STARLINK-3691","ECCENTRICITY":"0.00018400","APOAPSIS":"541.077","DECAY_DATE":null,"SITE":"AFETR","PERIAPSIS":"538.531","LAUNCH_DATE":"2022-03-09","SEMIMAJOR_AXIS":"6917.939","MEAN_MOTION":"15.08820922","ARG_OF_PERICENTER":"57.8996","EPOCH":"2022-08-25T22:00:00.999936","CENTER_NAME":"EARTH","TIME_SYSTEM":"UTC","COUNTRY_CODE":"US","OBJECT_TYPE":"PAYLOAD","ELEMENT_SET_NO":"999","TLE_LINE2":"2 51960  53.2161  68.1084 0001840  57.8996 323.5011 15.08820922  1301","REV_AT_EPOCH":"130","GP_ID":"211008342","FILE":"3547674","INCLINATION":"53.2161","RA_OF_ASC_NODE":"68.1084","TLE_LINE1":"1 51960U 22025E   22237.91667824  .00027298  00000-0  17275-2 0  9993","REF_FRAME":"TEME"},{"TLE_LINE2":"2 51961  53.2158  68.1205 0001721  60.9456 240.4638 15.08833613  1300","REV_AT_EPOCH":"130","GP_ID":"211007604","FILE":"3547674","INCLINATION":"53.2158","RA_OF_ASC_NODE":"68.1205","TLE_LINE1":"1 51961U 22025F   22237.91667824  .00032828  00000-0  20715-2 0  9992","REF_FRAME":"TEME","SEMIMAJOR_AXIS":"6917.900","MEAN_MOTION":"15.08833613","ARG_OF_PERICENTER":"60.9456","EPOCH":"2022-08-25T22:00:00.999936","CENTER_NAME":"EARTH","TIME_SYSTEM":"UTC","OBJECT_TYPE":"PAYLOAD","COUNTRY_CODE":"US","ELEMENT_SET_NO":"999","NORAD_CAT_ID":"51961","PERIOD":"95.438","MEAN_ELEMENT_THEORY":"SGP4","OBJECT_NAME":"STARLINK-3689","APOAPSIS":"540.955","ECCENTRICITY":"0.00017210","DECAY_DATE":null,"SITE":"AFETR","PERIAPSIS":"538.574","LAUNCH_DATE":"2022-03-09","EPHEMERIS_TYPE":"0","BSTAR":"0.00207150000000","MEAN_MOTION_DOT":"0.00032828","RCS_SIZE":"LARGE","MEAN_MOTION_DDOT":"0.0000000000000","CLASSIFICATION_TYPE":"U","MEAN_ANOMALY":"240.4638","OBJECT_ID":"2022-025F"},{"OBJECT_TYPE":"PAYLOAD","COUNTRY_CODE":"US","ELEMENT_SET_NO":"999","CENTER_NAME":"EARTH","TIME_SYSTEM":"UTC","MEAN_MOTION":"15.08810143","EPOCH":"2022-08-25T22:00:00.999936","ARG_OF_PERICENTER":"50.4949","SEMIMAJOR_AXIS":"6917.972","INCLINATION":"53.2178","RA_OF_ASC_NODE":"68.1113","TLE_LINE1":"1 51962U 22025G   22237.91667824  .00025861  00000-0  16383-2 0  9998","REF_FRAME":"TEME","GP_ID":"211007351","FILE":"3547674","TLE_LINE2":"2 51962  53.2178  68.1113 0001912  50.4949   5.7095 15.08810143  1306","REV_AT_EPOCH":"130","MEAN_ANOMALY":"5.7095","OBJECT_ID":"2022-025G","CLASSIFICATION_TYPE":"U","RCS_SIZE":"LARGE","MEAN_MOTION_DDOT":"0.0000000000000","EPHEMERIS_TYPE":"0","MEAN_MOTION_DOT":"0.00025861","BSTAR":"0.00163830000000","PERIAPSIS":"538.514","SITE":"AFETR","LAUNCH_DATE":"2022-03-09","ECCENTRICITY":"0.00019120","APOAPSIS":"541.159","DECAY_DATE":null,"MEAN_ELEMENT_THEORY":"SGP4","OBJECT_NAME":"STARLINK-3697","NORAD_CAT_ID":"51962","PERIOD":"95.439"},{"MEAN_ELEMENT_THEORY":"SGP4","OBJECT_NAME":"STARLINK-3675","NORAD_CAT_ID":"51963","PERIOD":"95.439","PERIAPSIS":"538.816","SITE":"AFETR","LAUNCH_DATE":"2022-03-09","DECAY_DATE":null,"ECCENTRICITY":"0.00014630","APOAPSIS":"540.840","RCS_SIZE":"LARGE","MEAN_MOTION_DDOT":"0.0000000000000","EPHEMERIS_TYPE":"0","MEAN_MOTION_DOT":"0.00030887","BSTAR":"0.00195170000000","OBJECT_ID":"2022-025H","MEAN_ANOMALY":"257.8424","CLASSIFICATION_TYPE":"U","TLE_LINE2":"2 51963  53.2166  68.1271 0001463  63.5658 257.8424 15.08813103  1307","REV_AT_EPOCH":"130","TLE_LINE1":"1 51963U 22025H   22237.91667824  .00030887  00000-0  19517-2 0  9995","RA_OF_ASC_NODE":"68.1271","INCLINATION":"53.2166","REF_FRAME":"TEME","FILE":"3547674","GP_ID":"211008097","MEAN_MOTION":"15.08813103","EPOCH":"2022-08-25T22:00:00.999936","ARG_OF_PERICENTER":"63.5658","SEMIMAJOR_AXIS":"6917.963","COUNTRY_CODE":"US","OBJECT_TYPE":"PAYLOAD","ELEMENT_SET_NO":"999","CENTER_NAME":"EARTH","TIME_SYSTEM":"UTC"},{"RCS_SIZE":"LARGE","MEAN_MOTION_DDOT":"0.0000000000000","EPHEMERIS_TYPE":"0","MEAN_MOTION_DOT":"0.00025536","BSTAR":"0.00161750000000","MEAN_ANOMALY":"51.4569","OBJECT_ID":"2022-025J","CLASSIFICATION_TYPE":"U","MEAN_ELEMENT_THEORY":"SGP4","OBJECT_NAME":"STARLINK-3690","NORAD_CAT_ID":"51964","PERIOD":"95.439","PERIAPSIS":"538.301","SITE":"AFETR","LAUNCH_DATE":"2022-03-09","ECCENTRICITY":"0.00021670","APOAPSIS":"541.300","DECAY_DATE":null,"MEAN_MOTION":"15.08821988","ARG_OF_PERICENTER":"49.9489","EPOCH":"2022-08-25T22:00:00.999936","SEMIMAJOR_AXIS":"6917.935","COUNTRY_CODE":"US","OBJECT_TYPE":"PAYLOAD","ELEMENT_SET_NO":"999","CENTER_NAME":"EARTH","TIME_SYSTEM":"UTC","TLE_LINE2":"2 51964  53.2185  68.1083 0002167  49.9489  51.4569 15.08821988  1300","REV_AT_EPOCH":"130","INCLINATION":"53.2185","RA_OF_ASC_NODE":"68.1083","TLE_LINE1":"1 51964U 22025J   22237.91667824  .00025536  00000-0  16175-2 0  9998","REF_FRAME":"TEME","GP_ID":"211008843","FILE":"3547674"},{"CLASSIFICATION_TYPE":"U","MEAN_ANOMALY":"343.7389","OBJECT_ID":"2022-025K","EPHEMERIS_TYPE":"0","BSTAR":"0.00162580000000","MEAN_MOTION_DOT":"0.00025654","RCS_SIZE":"LARGE","MEAN_MOTION_DDOT":"0.0000000000000","APOAPSIS":"540.916","ECCENTRICITY":"0.00015250","DECAY_DATE":null,"PERIAPSIS":"538.806","SITE":"AFETR","LAUNCH_DATE":"2022-03-09","NORAD_CAT_ID":"51965","PERIOD":"95.440","MEAN_ELEMENT_THEORY":"SGP4","OBJECT_NAME":"STARLINK-3696","CENTER_NAME":"EARTH","TIME_SYSTEM":"UTC","OBJECT_TYPE":"PAYLOAD","COUNTRY_CODE":"US","ELEMENT_SET_NO":"999","SEMIMAJOR_AXIS":"6917.996","MEAN_MOTION":"15.08802026","ARG_OF_PERICENTER":"57.6051","EPOCH":"2022-08-25T22:00:00.999936","GP_ID":"211007104","FILE":"3547674","RA_OF_ASC_NODE":"68.1126","INCLINATION":"53.2177","TLE_LINE1":"1 51965U 22025K   22237.91667824  .00025654  00000-0  16258-2 0  9992","REF_FRAME":"TEME","TLE_LINE2":"2 51965  53.2177  68.1126 0001525  57.6051 343.7389 15.08802026  1307","REV_AT_EPOCH":"130"},{"EPOCH":"2022-08-25T22:00:00.999936","ARG_OF_PERICENTER":"59.3959","MEAN_MOTION":"15.08823114","SEMIMAJOR_AXIS":"6917.932","ELEMENT_SET_NO":"999","COUNTRY_CODE":"US","OBJECT_TYPE":"PAYLOAD","TIME_SYSTEM":"UTC","CENTER_NAME":"EARTH","REV_AT_EPOCH":"130","TLE_LINE2":"2 51966  53.2183  68.1058 0001563  59.3959  81.9999 15.08823114  1306","REF_FRAME":"TEME","INCLINATION":"53.2183","RA_OF_ASC_NODE":"68.1058","TLE_LINE1":"1 51966U 22025L   22237.91667824  .00028269  00000-0  17880-2 0  9990","GP_ID":"211007852","FILE":"3547674","MEAN_MOTION_DDOT":"0.0000000000000","RCS_SIZE":"MEDIUM","BSTAR":"0.00178800000000","MEAN_MOTION_DOT":"0.00028269","EPHEMERIS_TYPE":"0","MEAN_ANOMALY":"81.9999","OBJECT_ID":"2022-025L","CLASSIFICATION_TYPE":"U","OBJECT_NAME":"STARLINK-3699","MEAN_ELEMENT_THEORY":"SGP4","PERIOD":"95.439","NORAD_CAT_ID":"51966","LAUNCH_DATE":"2022-03-09","SITE":"AFETR","PERIAPSIS":"538.716","ECCENTRICITY":"0.00015630","APOAPSIS":"540.878","DECAY_DATE":null},{"SITE":"AFETR","PERIAPSIS":"407.804","LAUNCH_DATE":"2022-03-09","ECCENTRICITY":"0.00034630","APOAPSIS":"412.506","DECAY_DATE":null,"MEAN_ELEMENT_THEORY":"SGP4","OBJECT_NAME":"STARLINK-3695","NORAD_CAT_ID":"51967","PERIOD":"92.768","MEAN_ANOMALY":"94.5600","OBJECT_ID":"2022-025M","CLASSIFICATION_TYPE":"U","RCS_SIZE":"MEDIUM","MEAN_MOTION_DDOT":"0.0000000000000","EPHEMERIS_TYPE":"0","BSTAR":"0.00085228000000","MEAN_MOTION_DOT":"0.00052527","RA_OF_ASC_NODE":"40.7313","INCLINATION":"53.2113","TLE_LINE1":"1 51967U 22025M   22237.91667824  .00052527  00000-0  85228-3 0  9997","REF_FRAME":"TEME","GP_ID":"211008598","FILE":"3547674","TLE_LINE2":"2 51967  53.2113  40.7313 0003463 218.4377  94.5600 15.52251819  1308","REV_AT_EPOCH":"130","OBJECT_TYPE":"PAYLOAD","COUNTRY_CODE":"US","ELEMENT_SET_NO":"999","CENTER_NAME":"EARTH","TIME_SYSTEM":"UTC","MEAN_MOTION":"15.52251819","ARG_OF_PERICENTER":"218.4377","EPOCH":"2022-08-25T22:00:00.999936","SEMIMAJOR_AXIS":"6788.290"},{"MEAN_MOTION":"15.08822974","ARG_OF_PERICENTER":"61.3397","EPOCH":"2022-08-25T22:00:00.999936","SEMIMAJOR_AXIS":"6917.932","OBJECT_TYPE":"PAYLOAD","COUNTRY_CODE":"US","ELEMENT_SET_NO":"999","CENTER_NAME":"EARTH","TIME_SYSTEM":"UTC","TLE_LINE2":"2 51968  53.2184  68.1065 0001727  61.3397 100.0422 15.08822974 27291","REV_AT_EPOCH":"2729","TLE_LINE1":"1 51968U 22025N   22237.91667824  .00029389  00000-0  18578-2 0  9991","INCLINATION":"53.2184","RA_OF_ASC_NODE":"68.1065","REF_FRAME":"TEME","FILE":"3547403","GP_ID":"210978836","RCS_SIZE":"LARGE","MEAN_MOTION_DDOT":"0.0000000000000","EPHEMERIS_TYPE":"0","MEAN_MOTION_DOT":"0.00029389","BSTAR":"0.00185780000000","OBJECT_ID":"2022-025N","MEAN_ANOMALY":"100.0422","CLASSIFICATION_TYPE":"U","MEAN_ELEMENT_THEORY":"SGP4","OBJECT_NAME":"STARLINK-3681","NORAD_CAT_ID":"51968","PERIOD":"95.439","PERIAPSIS":"538.603","SITE":"AFETR","LAUNCH_DATE":"2022-03-09","DECAY_DATE":null,"ECCENTRICITY":"0.00017270","APOAPSIS":"540.992"},{"PERIAPSIS":"538.560","SITE":"AFETR","LAUNCH_DATE":"2022-03-09","ECCENTRICITY":"0.00018180","APOAPSIS":"541.075","DECAY_DATE":null,"MEAN_ELEMENT_THEORY":"SGP4","OBJECT_NAME":"STARLINK-3680","NORAD_CAT_ID":"51969","PERIOD":"95.439","MEAN_ANOMALY":"24.1474","OBJECT_ID":"2022-025P","CLASSIFICATION_TYPE":"U","RCS_SIZE":"LARGE","MEAN_MOTION_DDOT":"0.0000000000000","EPHEMERIS_TYPE":"0","MEAN_MOTION_DOT":"0.00025517","BSTAR":"0.00161660000000","RA_OF_ASC_NODE":"68.1075","INCLINATION":"53.2185","TLE_LINE1":"1 51969U 22025P   22237.91667824  .00025517  00000-0  16166-2 0  9992","REF_FRAME":"TEME","GP_ID":"211007605","FILE":"3547674","TLE_LINE2":"2 51969  53.2185  68.1075 0001818  57.2433  24.1474 15.08816314  1308","REV_AT_EPOCH":"130","OBJECT_TYPE":"PAYLOAD","COUNTRY_CODE":"US","ELEMENT_SET_NO":"999","CENTER_NAME":"EARTH","TIME_SYSTEM":"UTC","MEAN_MOTION":"15.08816314","ARG_OF_PERICENTER":"57.2433","EPOCH":"2022-08-25T22:00:00.999936","SEMIMAJOR_AXIS":"6917.953"}];
